{
"type": "FeatureCollection",
"name": "Land_Quality_unified",
"crs": { "type": "name", "properties": { "name": "urn:ogc:def:crs:OGC:1.3:CRS84" } },
"features": [
{ "type": "Feature", "properties": { "layerreference": "lpd_red_mex00000002", "sitename": "Aldborough Hatch Farm", "borough": "Bexley", "planningauthority": "Bexley", "hectares": "8.489", "easting": "546543", "northing": "190563", "designation": "Minerals Safeguarding Area", "boroughdesignation": "Minerals Safeguarding Area", "classification": "Preferred Areas for Mineral Extraction", "notes": "Areas with proven, substantial recoverable reserves sufficient to demonstrate a minimum 7 year land bank and that are relatively unconstrained by existing land use.", "extrainfo1": "Policy 37 & 38", "globalid": "{53C8799D-00A4-482E-8F16-5F07B0A971EE}", "source_file": "Minerals_Safeguarding_12.geojson, Minerals_Safeguarding_Area_31.geojson, Notifiable_Installations_27.geojson, Preferred_Areas_for_Mineral_Extraction_7.geojson, Public_Safety_Zones_8.geojson", "sitereference": null, "address": null, "uprn": null, "firstaddeddate": null, "lastupdateddate": null, "removeddate": null, "status": null, "source": null, "extrainfo2": null, "extrainfo3": null, "missing": null }, "geometry": { "type": "MultiPolygon", "coordinates": [ [ [ [ 0.084863570904623, 51.428217404177552 ], [ 0.103895427634311, 51.423767372429651 ], [ 0.115212158343581, 51.41697665463181 ], [ 0.107622312270971, 51.414122408770602 ], [ 0.093619334994568, 51.421017562140008 ], [ 0.084863570904623, 51.428217404177552 ] ], [ [ 0.09925863225983, 51.419327546145766 ], [ 0.104407429617014, 51.416870088195097 ], [ 0.106977663256797, 51.418873960385795 ], [ 0.09925863225983, 51.419327546145766 ] ] ], [ [ [ -0.482368717831338, 51.463083718999293 ], [ -0.496523003298828, 51.465417474585408 ], [ -0.482399248470147, 51.466501145428907 ], [ -0.482368717831338, 51.463083718999293 ] ] ], [ [ [ -0.430342604975294, 51.463108252224245 ], [ -0.434152434203914, 51.46701782539413 ], [ -0.422488135619449, 51.466384434855946 ], [ -0.430342604975294, 51.463108252224245 ] ] ], [ [ [ -0.188513066971558, 51.46703480832943 ], [ -0.187591538045116, 51.46609253901245 ], [ -0.189058300332731, 51.466827410640619 ], [ -0.188513066971558, 51.46703480832943 ] ] ], [ [ [ -0.485029065252305, 51.475338508891213 ], [ -0.504249600842307, 51.478365333373731 ], [ -0.485073302816357, 51.479655386727785 ], [ -0.485029065252305, 51.475338508891213 ] ] ], [ [ [ -0.433278547338529, 51.476142311109349 ], [ -0.415657323046194, 51.478638020890699 ], [ -0.414988224596384, 51.476837090406676 ], [ -0.433278547338529, 51.476142311109349 ] ] ], [ [ [ 0.08885636187181, 51.58037641761868 ], [ 0.100960110362949, 51.585967413754155 ], [ 0.102756409341689, 51.586947348161679 ], [ 0.101427699908647, 51.583758525878665 ], [ 0.08885636187181, 51.58037641761868 ] ] ], [ [ [ 0.112237434113377, 51.594473260018191 ], [ 0.115281084665466, 51.597379518544003 ], [ 0.116539655446988, 51.592687708725514 ], [ 0.112237434113377, 51.594473260018191 ] ] ], [ [ [ 0.173311343436063, 51.445463113511146 ], [ 0.152932423411939, 51.408708482618344 ], [ 0.126449856172448, 51.421105378024635 ], [ 0.13717614131344, 51.432687220021911 ], [ 0.173311343436063, 51.445463113511146 ] ], [ [ 0.14868883321374, 51.436248557917203 ], [ 0.148718324904516, 51.436262803661073 ], [ 0.148727123902719, 51.436267135230921 ], [ 0.14868883321374, 51.436248557917203 ] ], [ [ 0.154372752494091, 51.418184963880783 ], [ 0.154377394089194, 51.418191140280847 ], [ 0.154374978519365, 51.418188600253934 ], [ 0.154372752494091, 51.418184963880783 ] ], [ [ 0.151963649666845, 51.417708760086398 ], [ 0.151966687769128, 51.417708976892911 ], [ 0.151965785860576, 51.41770898417581 ], [ 0.151963649666845, 51.417708760086398 ] ], [ [ 0.153408854804341, 51.410799610868175 ], [ 0.153441781652785, 51.410878197392911 ], [ 0.153388126179185, 51.410743538547152 ], [ 0.153408854804341, 51.410799610868175 ] ] ], [ [ [ 0.119367309402069, 51.429989063808847 ], [ 0.134791293897189, 51.43405693235556 ], [ 0.134127854822194, 51.430659674664533 ], [ 0.120475738834489, 51.419374629563762 ], [ 0.112306506353102, 51.422033351428432 ], [ 0.112588200958218, 51.424114397049884 ], [ 0.113269557829852, 51.423758411160208 ], [ 0.113888360516705, 51.425157377473433 ], [ 0.117332002751017, 51.428422219729782 ], [ 0.119367309402069, 51.429989063808847 ] ], [ [ 0.117859382993098, 51.428794998806268 ], [ 0.117855521135676, 51.428792720369522 ], [ 0.117846143622443, 51.428785587091966 ], [ 0.117859382993098, 51.428794998806268 ] ] ], [ [ [ 0.146950951566777, 51.437399406390632 ], [ 0.146966446607111, 51.438851556583515 ], [ 0.148098132523953, 51.438481830755308 ], [ 0.146950951566777, 51.437399406390632 ] ] ], [ [ [ 0.159391073149525, 51.452037665391927 ], [ 0.162344312493845, 51.449174445553453 ], [ 0.171801513497009, 51.450525274507314 ], [ 0.155877435086577, 51.447490514120389 ], [ 0.152050065800526, 51.452715836721978 ], [ 0.152082147334267, 51.452923434886131 ], [ 0.159391073149525, 51.452037665391927 ] ], [ [ 0.158989545980466, 51.452078672042539 ], [ 0.158991952567124, 51.452078290817241 ], [ 0.158994263034025, 51.452078086489429 ], [ 0.158989545980466, 51.452078672042539 ] ] ], [ [ [ 0.198519149185104, 51.465040086566255 ], [ 0.198388651822088, 51.461816829868496 ], [ 0.19537516606493, 51.463627515009762 ], [ 0.198519149185104, 51.465040086566255 ] ] ], [ [ [ 0.193495412586837, 51.465719199110133 ], [ 0.20603416559453, 51.467941039008942 ], [ 0.201268060429829, 51.45965198589132 ], [ 0.201793130204975, 51.464850152758167 ], [ 0.193495412586837, 51.465719199110133 ] ] ], [ [ [ 0.223424475312798, 51.548162776978089 ], [ 0.309141092152137, 51.539240740892282 ], [ 0.202361903125514, 51.514936990659329 ], [ 0.223424475312798, 51.548162776978089 ] ] ], [ [ [ 0.185672145768993, 51.547184525382093 ], [ 0.182003872663654, 51.535629109449019 ], [ 0.173781498083618, 51.537405661043167 ], [ 0.185672145768993, 51.547184525382093 ] ] ], [ [ [ 0.241289727278461, 51.561012271217528 ], [ 0.269851907926734, 51.599572507038644 ], [ 0.287110403315256, 51.572144320757204 ], [ 0.241289727278461, 51.561012271217528 ] ] ], [ [ [ 0.147568395560527, 51.596805694252964 ], [ 0.166693940870128, 51.576772064233658 ], [ 0.149706832956308, 51.569864591556247 ], [ 0.147568395560527, 51.596805694252964 ] ] ] ] } },
{ "type": "Feature", "properties": { "layerreference": "lpd_bre_npi00000001", "sitename": "Stanmore - Birchen Grove", "borough": "Brent", "planningauthority": "Brent", "hectares": "0.0", "easting": "519576", "northing": "188581", "designation": "Notifiable Pipeline", "boroughdesignation": "Notifiable Pipeline", "classification": "High Pressure", "notes": "Pipe diameter: 610mm", "extrainfo1": null, "globalid": null, "source_file": "Notifiable_Pipeline_26.geojson", "sitereference": null, "address": null, "uprn": null, "firstaddeddate": null, "lastupdateddate": null, "removeddate": null, "status": null, "source": null, "extrainfo2": null, "extrainfo3": null, "missing": null }, "geometry": { "type": "MultiLineString", "coordinates": [ [ [ -0.258980148244697, 51.567916059120712 ], [ -0.259566726851027, 51.567811232636863 ], [ -0.259888105781541, 51.567755300706246 ], [ -0.260227595814123, 51.567697388338139 ], [ -0.260579787134971, 51.567590205626296 ], [ -0.260750344728284, 51.567516299125863 ], [ -0.261033903711071, 51.567364260364435 ], [ -0.261362951458075, 51.567154444973575 ], [ -0.261577065273252, 51.567026104793662 ], [ -0.261816252163339, 51.567044260445911 ], [ -0.261879217392617, 51.567095774762244 ], [ -0.261990124439405, 51.567167107743686 ], [ -0.26209189035307, 51.567241677348825 ], [ -0.262161809539988, 51.567300038718543 ], [ -0.262223015745797, 51.567350402757114 ], [ -0.262279156942619, 51.567391699462341 ], [ -0.262308687527638, 51.567421361719965 ], [ -0.26238157002499, 51.567496627389161 ], [ -0.262510251823187, 51.567622176834234 ], [ -0.262529913121868, 51.56767417364248 ], [ -0.262585720297018, 51.567818876641226 ], [ -0.262663852531313, 51.568040344636934 ], [ -0.262745205371694, 51.568271976578508 ], [ -0.262789080570588, 51.56839851822668 ], [ -0.262867129083404, 51.568622232890078 ], [ -0.262950243769096, 51.568855014774641 ], [ -0.262979827203384, 51.568977972669742 ], [ -0.262984079126438, 51.569008384595669 ], [ -0.262989448644128, 51.569056797649438 ], [ -0.26302226103385, 51.569284338723193 ], [ -0.262990986280735, 51.569442364946859 ], [ -0.262995923331707, 51.569454802426975 ], [ -0.263008199569991, 51.569463976431528 ], [ -0.263031548814589, 51.569466570115679 ], [ -0.263065756977182, 51.569468200486625 ], [ -0.263324615615889, 51.569491140296471 ], [ -0.263772242933246, 51.569530361028498 ], [ -0.26407964650589, 51.569557389507821 ], [ -0.264376319896032, 51.56958201040532 ], [ -0.264787974646563, 51.569571237607484 ], [ -0.26516906905584, 51.569557763509451 ], [ -0.265415218186407, 51.569535549358072 ], [ -0.265577973174341, 51.569524466553986 ], [ -0.265771758521235, 51.569503725780564 ], [ -0.265907729494158, 51.569485502476851 ], [ -0.266109238174082, 51.56945138684312 ], [ -0.266354523801595, 51.569404429173481 ], [ -0.266747321578077, 51.569320308585006 ], [ -0.266974920834601, 51.569264096106345 ], [ -0.267140844091532, 51.569217088777812 ], [ -0.267279257050316, 51.569182039411196 ], [ -0.26733758333427, 51.569166040075075 ], [ -0.267375738481416, 51.569158735178824 ], [ -0.267401104058315, 51.569155737583365 ], [ -0.267431706824632, 51.569157313449473 ], [ -0.267478234721547, 51.56916699267633 ], [ -0.26752480534434, 51.569175548479407 ], [ -0.267592239426544, 51.569204644916901 ], [ -0.267661390868746, 51.569236014738998 ], [ -0.267829656442747, 51.569317181110613 ], [ -0.268185805520018, 51.569485422814019 ], [ -0.268638800840341, 51.569715790242775 ], [ -0.26940323286317, 51.57010474202832 ], [ -0.269928702176048, 51.570374390361096 ], [ -0.269964074328472, 51.570392896406354 ], [ -0.270239841655301, 51.570540838102445 ], [ -0.27077257457928, 51.570809465612491 ], [ -0.27084898427096, 51.570839816440831 ], [ -0.270896068763112, 51.570834890039578 ], [ -0.270944870742151, 51.570832236995471 ], [ -0.271066068182036, 51.570775572833327 ], [ -0.271475281041282, 51.57059163912465 ], [ -0.27150111587815, 51.570576283165352 ], [ -0.271522876526521, 51.57057323157801 ], [ -0.271553352586312, 51.570578176601586 ], [ -0.271904771730932, 51.570633933673584 ], [ -0.271958555672009, 51.570642593923878 ], [ -0.271981863472933, 51.570646309244466 ], [ -0.271997832530963, 51.57065328860218 ], [ -0.272008350779964, 51.570661311729651 ], [ -0.272051459816624, 51.570713652116567 ], [ -0.272047953211891, 51.570758561885924 ], [ -0.272291023781092, 51.571055513903822 ], [ -0.272318149556054, 51.571196417632379 ], [ -0.272397185926354, 51.571538163782641 ], [ -0.272439572218096, 51.571609601965605 ], [ -0.272764244856435, 51.572180894618967 ], [ -0.273175973672202, 51.572882731299011 ], [ -0.273595607378575, 51.57356669812809 ], [ -0.273651526444648, 51.573661939632679 ], [ -0.274010626423854, 51.574277572264847 ], [ -0.274232194311812, 51.574619165037426 ], [ -0.274745506754998, 51.57549783877716 ], [ -0.274780943762412, 51.575562429664529 ], [ -0.275032297115344, 51.575975272782998 ], [ -0.275214496279309, 51.576261207203629 ], [ -0.275770819887256, 51.577148376383917 ], [ -0.276420211728581, 51.57819877034752 ], [ -0.276700716202241, 51.578652502873425 ], [ -0.276823355510249, 51.578844265229691 ], [ -0.27695278325075, 51.579047367442769 ], [ -0.27734321622572, 51.579647712441513 ], [ -0.277358084783635, 51.579683899737034 ], [ -0.277351825891061, 51.579706288522786 ], [ -0.277344103727373, 51.579719663567403 ], [ -0.277295948640617, 51.57975267770108 ], [ -0.277227619469415, 51.579794387935884 ], [ -0.277004260198907, 51.579928240946757 ], [ -0.276777123408786, 51.580066534201791 ], [ -0.275811304624182, 51.580654830534399 ], [ -0.275654593566642, 51.580743574790084 ], [ -0.275619738550608, 51.580758799130557 ], [ -0.275285170181681, 51.580875278394053 ], [ -0.27487401695233, 51.58101311164797 ], [ -0.273828524784493, 51.581369793889799 ], [ -0.273784738002676, 51.581382638253082 ], [ -0.273751514762543, 51.581402382175916 ], [ -0.273711604837957, 51.581455748723144 ], [ -0.273359483210881, 51.582035065918262 ], [ -0.273313779436861, 51.582098463386735 ], [ -0.273193861028567, 51.582215846516256 ], [ -0.272917191545914, 51.582470302985961 ], [ -0.272742933307842, 51.582640839570296 ], [ -0.272651082653786, 51.582731658439045 ], [ -0.272487897373077, 51.58289561342287 ], [ -0.272355011250713, 51.583021797088264 ], [ -0.272345441205225, 51.583036268638928 ], [ -0.272339435004127, 51.583051916683935 ], [ -0.272333173148449, 51.583074305162448 ], [ -0.272248531872376, 51.583307982018454 ], [ -0.27223840778643, 51.583337057830882 ], [ -0.272230683488009, 51.583350432511338 ], [ -0.272226778725615, 51.583358243256903 ], [ -0.272221113331702, 51.583364904050072 ], [ -0.272204159751972, 51.58338376302234 ], [ -0.272073245103614, 51.583505479263231 ], [ -0.271882793018713, 51.583674652127044 ], [ -0.271614002320051, 51.583911237038691 ], [ -0.271481281292667, 51.584032926023632 ], [ -0.271425563244902, 51.584074818648901 ], [ -0.271414274672185, 51.584087016747326 ], [ -0.271410454969654, 51.584092580653078 ], [ -0.271411917178031, 51.584101594451681 ], [ -0.271411490851075, 51.584112828500686 ], [ -0.271416516969422, 51.584123018822872 ], [ -0.271434208621743, 51.584132271654063 ], [ -0.271593433816985, 51.584215547017273 ], [ -0.271633971335194, 51.584240872723029 ], [ -0.271637803951231, 51.584282518376135 ], [ -0.271321056990472, 51.58454649720229 ], [ -0.271312650037098, 51.58457784629136 ], [ -0.27131247949365, 51.584582339910348 ], [ -0.271363836915425, 51.584607825075622 ], [ -0.271709681377759, 51.584765786886294 ], [ -0.272214927791975, 51.585002528620542 ], [ -0.27240546656326, 51.585116612701903 ], [ -0.272447936468318, 51.585138594462954 ], [ -0.27294264078851, 51.585415642996701 ], [ -0.272957947843085, 51.585487806314475 ], [ -0.2730143338366, 51.585523481029966 ], [ -0.273035604763433, 51.585581119671147 ], [ -0.273050684682978, 51.585611690435648 ], [ -0.273068505026783, 51.585617572809895 ], [ -0.273344997768927, 51.585701447131967 ], [ -0.273541022619821, 51.585766152616614 ], [ -0.273939107362117, 51.585831581514306 ], [ -0.274028635852748, 51.585849758631319 ], [ -0.274063510729935, 51.585881744394023 ], [ -0.274059478342671, 51.585892925416587 ], [ -0.274013248803485, 51.586065346520073 ], [ -0.274104886604388, 51.586361190518957 ], [ -0.274161615121681, 51.586387877447841 ], [ -0.274199230345234, 51.586395174756014 ], [ -0.274376002548618, 51.586396649922669 ], [ -0.274466553788096, 51.58638786496622 ], [ -0.274503956263195, 51.58640077920851 ], [ -0.274533804827557, 51.586422574640629 ], [ -0.274661769558199, 51.586712208029731 ], [ -0.274842550755151, 51.587131881271638 ], [ -0.274859223014902, 51.587168095351458 ], [ -0.275080481488527, 51.587662549223481 ], [ -0.275102606917711, 51.587697719375647 ], [ -0.275107251318925, 51.58771802020258 ], [ -0.275142553823372, 51.587738771591113 ], [ -0.275325770013894, 51.587856115258532 ], [ -0.275378553930189, 51.587891735867068 ], [ -0.275392513378289, 51.5879043053366 ], [ -0.275418246014576, 51.587939528430375 ], [ -0.27543886618331, 51.587966808176219 ], [ -0.2757892769175, 51.588529476089874 ], [ -0.276005472104644, 51.588872109406871 ], [ -0.276241568842278, 51.589261119860168 ], [ -0.276418458860242, 51.589545849482995 ], [ -0.276498418651652, 51.589674039195586 ], [ -0.276542546083447, 51.589747749196832 ], [ -0.276573351010601, 51.589792038747099 ], [ -0.276592849405216, 51.589801317304136 ], [ -0.276623168814189, 51.589810754746928 ], [ -0.276655334249429, 51.589819095256026 ], [ -0.276762506008545, 51.589800436256304 ], [ -0.277505916846428, 51.589658480548067 ], [ -0.277574747115919, 51.589651622451647 ], [ -0.277601884528273, 51.589649772634459 ], [ -0.27762352647597, 51.589650090228176 ], [ -0.277648350542102, 51.589661694824301 ], [ -0.277660805066983, 51.58966637371293 ], [ -0.27767459573707, 51.589683436548256 ], [ -0.277743804151765, 51.589762010255988 ], [ -0.27825691048197, 51.590413608017691 ], [ -0.279298931961532, 51.591729392467279 ], [ -0.279641716598882, 51.592161548812669 ], [ -0.279732935948818, 51.592278660925423 ], [ -0.279822564345477, 51.59239012949481 ], [ -0.2799051909132, 51.592495875228643 ], [ -0.279953867311959, 51.59254492187037 ], [ -0.280054615492095, 51.592648684996263 ], [ -0.280097923788253, 51.59269652888235 ], [ -0.280139767998673, 51.592735359057343 ], [ -0.28017293360955, 51.592765069811229 ], [ -0.280204465357087, 51.592790260494866 ], [ -0.280241323153468, 51.592817777267932 ], [ -0.280276589506369, 51.592839650561103 ], [ -0.280350432587214, 51.592891313826279 ], [ -0.280596365299333, 51.593069141425659 ], [ -0.281045392955607, 51.593364594088058 ], [ -0.281310959101287, 51.593548327830085 ], [ -0.28133909672017, 51.593567848350233 ], [ -0.281356582039849, 51.593582716768239 ], [ -0.281368826010544, 51.593593012318443 ], [ -0.281373558553552, 51.593611066091142 ], [ -0.281379967552937, 51.593632516500207 ], [ -0.281389987091512, 51.593749562307394 ], [ -0.281455930350788, 51.594154054519827 ], [ -0.281491609615365, 51.594404111503906 ], [ -0.281512771429837, 51.594560661457287 ], [ -0.281526098602493, 51.594590081350603 ], [ -0.281541950268281, 51.59460042969944 ], [ -0.281574162397971, 51.594607645484352 ], [ -0.281775178108581, 51.594589231727433 ], [ -0.282102537066403, 51.594570418799911 ], [ -0.282234079645362, 51.594575716076363 ], [ -0.282759487664256, 51.594617125082792 ], [ -0.283133809553903, 51.594645081562305 ], [ -0.283444215175509, 51.594645125409123 ], [ -0.283862885120005, 51.594645627389674 ], [ -0.284548672009382, 51.594645536022483 ], [ -0.285089993700167, 51.594647826135223 ], [ -0.285447380295202, 51.594646303031915 ], [ -0.285510425226871, 51.594649472002367 ], [ -0.285558321461104, 51.594671528163587 ], [ -0.28586189092089, 51.594805225211509 ], [ -0.286084055998273, 51.594896143748315 ], [ -0.286368703458478, 51.595053167769159 ], [ -0.286780896170483, 51.59527387439735 ], [ -0.287063998254966, 51.595424129967306 ], [ -0.287486977912788, 51.595646115513901 ], [ -0.287830271481403, 51.595827596148801 ], [ -0.288316715788509, 51.596089845387809 ], [ -0.288584595581291, 51.596261231768125 ], [ -0.288737765471759, 51.596363503494437 ], [ -0.28879056973119, 51.59639911820701 ], [ -0.288883889826929, 51.596461176192705 ], [ -0.289341010868167, 51.59678369113459 ], [ -0.289726587914927, 51.597041092217225 ], [ -0.289912684988359, 51.597179811034557 ], [ -0.290015987183316, 51.597264494085465 ], [ -0.290138878552058, 51.597356206570758 ], [ -0.290205313972022, 51.59741337572688 ], [ -0.290269903552896, 51.597471641985351 ], [ -0.290331803564009, 51.597553473618255 ], [ -0.29040590871553, 51.597646723262109 ], [ -0.290480847785466, 51.597765837642406 ], [ -0.290536366886224, 51.597873428866677 ], [ -0.290541314387605, 51.597885865226822 ], [ -0.290579385922064, 51.59797746593587 ], [ -0.290609946977808, 51.598076825449553 ], [ -0.290645624441514, 51.598184127656502 ], [ -0.290681302067708, 51.59829142985226 ], [ -0.290718183408387, 51.59846281914281 ], [ -0.290770816320072, 51.598743468468612 ], [ -0.290819936149035, 51.598973485358385 ], [ -0.290855562907324, 51.599130243955052 ], [ -0.290916551640886, 51.59938066610178 ], [ -0.290932430076867, 51.599486555881441 ], [ -0.290938844354945, 51.599508005796629 ], [ -0.290947357757947, 51.599521618082214 ], [ -0.290987244857409, 51.599564911876897 ], [ -0.291060637621232, 51.599677259147477 ], [ -0.291084331968289, 51.599719193127399 ], [ -0.29110534629528, 51.599736359481092 ], [ -0.291124978431285, 51.59974226543401 ], [ -0.291146583159392, 51.599743703991521 ], [ -0.291164833087509, 51.599738349540871 ], [ -0.291252390516447, 51.599713771551251 ], [ -0.291311211849224, 51.599685403109461 ], [ -0.291349599851321, 51.599672473584612 ], [ -0.291382154479541, 51.599670699409202 ], [ -0.291507256377332, 51.599655659952205 ], [ -0.291750750172165, 51.599611994659249 ], [ -0.291806783370898, 51.599604816023565 ] ] ] } },
{ "type": "Feature", "properties": { "layerreference": "lpd_bre_npi00000002", "sitename": "STANMORE TO KENSAL GREEN 24\"", "borough": "Brent", "planningauthority": "Brent", "hectares": "0.0", "easting": "520190", "northing": "185979", "designation": "Notifiable Pipeline", "boroughdesignation": "Notifiable Pipeline", "classification": "High Pressure", "notes": "Pipe diameter: 610mm", "extrainfo1": null, "globalid": null, "source_file": "Notifiable_Pipeline_26.geojson", "sitereference": null, "address": null, "uprn": null, "firstaddeddate": null, "lastupdateddate": null, "removeddate": null, "status": null, "source": null, "extrainfo2": null, "extrainfo3": null, "missing": null }, "geometry": { "type": "MultiLineString", "coordinates": [ [ [ -0.267827477195375, 51.559665980703329 ], [ -0.267822916095216, 51.559670598360867 ], [ -0.267387140465054, 51.560081182562158 ], [ -0.267306784693525, 51.56015746469383 ] ] ] } },
{ "type": "Feature", "properties": { "layerreference": "lpd_bre_npi00000003", "sitename": "STANMORE TO KENSAL GREEN 24\"", "borough": "Brent", "planningauthority": "Brent", "hectares": "0.0", "easting": "522060", "northing": "183874", "designation": "Notifiable Pipeline", "boroughdesignation": "Notifiable Pipeline", "classification": "High Pressure", "notes": "Pipe diameter: 610mm", "extrainfo1": null, "globalid": null, "source_file": "Notifiable_Pipeline_26.geojson", "sitereference": null, "address": null, "uprn": null, "firstaddeddate": null, "lastupdateddate": null, "removeddate": null, "status": null, "source": null, "extrainfo2": null, "extrainfo3": null, "missing": null }, "geometry": { "type": "MultiLineString", "coordinates": [ [ [ -0.223672374934149, 51.526338994733976 ], [ -0.223841146818689, 51.526632679065251 ], [ -0.2240135227651, 51.526926417692806 ], [ -0.224192360717631, 51.527007808567305 ], [ -0.224179676435477, 51.527287504796725 ], [ -0.2241695618744, 51.52745483500231 ], [ -0.224158494517823, 51.527692965872646 ], [ -0.224142644825651, 51.52796137366073 ], [ -0.224141858037901, 51.527981594632806 ], [ -0.224091702077848, 51.528714839324529 ], [ -0.224055646655939, 51.529224611674827 ], [ -0.224043214135359, 51.529451481319185 ], [ -0.224030991317613, 51.529626647886182 ], [ -0.224029024105666, 51.5296772002987 ], [ -0.224028062355516, 51.529701914811312 ], [ -0.224020114882759, 51.529720903320801 ], [ -0.224008740117039, 51.529735343747369 ], [ -0.223983262752591, 51.529741702323555 ], [ -0.223954314382028, 51.529744636197215 ], [ -0.22391319566254, 51.529736145314203 ], [ -0.223829244637105, 51.529716889461675 ], [ -0.223718671084289, 51.52968711399555 ], [ -0.223485048107717, 51.529624001667834 ], [ -0.223404699615918, 51.529604800065329 ], [ -0.223311962374888, 51.529579790530697 ], [ -0.22326196978874, 51.529567792872051 ], [ -0.223219050294472, 51.529559274469484 ], [ -0.223174242275359, 51.529552975544171 ], [ -0.22315082839349, 51.529552620900994 ], [ -0.223129215579881, 51.529552293533932 ], [ -0.223107427813194, 51.529556459708502 ], [ -0.223094557905602, 51.529563009058535 ], [ -0.223075584962095, 51.529587450744579 ], [ -0.223031798396676, 51.529647486123281 ], [ -0.223012694160889, 51.529675297957141 ], [ -0.223000750454671, 51.529704342305202 ], [ -0.22299983188813, 51.529727933417611 ], [ -0.223013190701562, 51.529755112950596 ], [ -0.223027118159682, 51.529767688460062 ], [ -0.223258765191959, 51.529835267966348 ], [ -0.223615089417887, 51.529940704599603 ], [ -0.223656077086262, 51.529952565748047 ], [ -0.223989504953244, 51.529998079940754 ], [ -0.224331982658331, 51.530042606117298 ], [ -0.224455776992491, 51.530056844420656 ], [ -0.225142623422528, 51.530143673548004 ], [ -0.225255524368684, 51.530159994286187 ], [ -0.225276438519804, 51.530178295465937 ], [ -0.225332500902126, 51.530219609343419 ], [ -0.225420109497876, 51.530283881377798 ], [ -0.225425237364264, 51.530430085248163 ], [ -0.22542855402725, 51.530530175730988 ], [ -0.225431991631382, 51.530580809911406 ], [ -0.225454314013894, 51.530609248795081 ], [ -0.225507964431667, 51.530666262773707 ], [ -0.225525364043878, 51.530682262646067 ], [ -0.225935265248545, 51.530661485101717 ], [ -0.226236837309615, 51.530645812492331 ], [ -0.22658532544691, 51.53062860026899 ], [ -0.226998915292115, 51.530605626677193 ], [ -0.227421510319485, 51.53058278769948 ], [ -0.228187145002214, 51.53054377196267 ], [ -0.228284666720483, 51.530538500574231 ], [ -0.228336942572841, 51.530538166030716 ], [ -0.22835855591417, 51.530538492442886 ], [ -0.228378150093108, 51.530544408597649 ], [ -0.228397569838254, 51.530554818306825 ], [ -0.228422349321865, 51.530566433002093 ], [ -0.228449191582612, 51.530571334555006 ], [ -0.228463818528799, 51.530565935202553 ], [ -0.228482265735432, 51.530554973298862 ], [ -0.228500887361923, 51.530539517834185 ], [ -0.228581967708416, 51.530493532187812 ], [ -0.228609551219798, 51.530479336081363 ], [ -0.228624090909662, 51.530476183487544 ], [ -0.228640388103404, 51.530474181477992 ], [ -0.228667317540735, 51.530476836201565 ], [ -0.228702729304957, 51.530493107572475 ], [ -0.229049033560349, 51.530671439400827 ], [ -0.229093712761705, 51.530681106268254 ], [ -0.229147310392207, 51.530693155842847 ], [ -0.229266982812027, 51.530720815398531 ], [ -0.229386655379526, 51.530748474833352 ], [ -0.229617169660547, 51.53079916387221 ], [ -0.229988491973108, 51.53089019471772 ], [ -0.230117083944179, 51.530920236075112 ], [ -0.230241812437999, 51.530956963291665 ], [ -0.23032915299866, 51.530981885891983 ], [ -0.230508715107724, 51.531045293091445 ], [ -0.230764942652958, 51.531130089135885 ], [ -0.230965901906647, 51.531199438567036 ], [ -0.23100148924883, 51.531211215691684 ], [ -0.231019065195616, 51.531222721204458 ], [ -0.23102952367591, 51.531231871292661 ], [ -0.231027330619491, 51.531241954650554 ], [ -0.231017366889317, 51.531266533448843 ], [ -0.230960284251469, 51.531344355985802 ], [ -0.230926078122867, 51.531389926102456 ], [ -0.230906629517247, 51.531426726379401 ], [ -0.230903957379564, 51.531449167032847 ], [ -0.230902955741554, 51.531475005020553 ], [ -0.230943241153178, 51.531737515598891 ], [ -0.230996748425612, 51.532123870744542 ], [ -0.23104162675607, 51.532453893355104 ], [ -0.231044358184796, 51.53247641548905 ], [ -0.231049239187749, 51.532489977657889 ], [ -0.231056182669513, 51.532496826642728 ], [ -0.231082765078479, 51.532508467948901 ], [ -0.231106006392593, 51.532513314586225 ], [ -0.231136713754497, 51.532511529510749 ], [ -0.231419979911627, 51.532503435823244 ], [ -0.231879849894888, 51.532495755258353 ], [ -0.2325382860788, 51.532479824256491 ], [ -0.232897245459366, 51.532471743351906 ], [ -0.233066862051068, 51.532466429884629 ], [ -0.233110177664159, 51.53246483419575 ], [ -0.233153754248503, 51.532456498139226 ], [ -0.23334101669509, 51.532414356489163 ], [ -0.233364606135469, 51.532410215544303 ], [ -0.233494005664826, 51.532466118396783 ], [ -0.233657280355307, 51.532531523536413 ], [ -0.233705017935949, 51.532601933212348 ], [ -0.233715259859849, 51.532616700028385 ], [ -0.233726868171791, 51.532642727885317 ], [ -0.233741861491341, 51.532674426940446 ], [ -0.233753426351146, 51.532701578187051 ], [ -0.233759631095071, 51.532727524684127 ], [ -0.233768612116097, 51.532774869870963 ], [ -0.233788244977569, 51.532872957537087 ], [ -0.233827206578388, 51.533076996602787 ], [ -0.233830200293514, 51.533092778329646 ], [ -0.233836057289924, 51.533127711959743 ], [ -0.233835057251695, 51.533153549980867 ], [ -0.233833926771902, 51.533182758178484 ], [ -0.233828299293107, 51.53328158957445 ], [ -0.233877211834748, 51.53332166759246 ], [ -0.234051011926674, 51.533441184856443 ], [ -0.234138682511693, 51.533504327127822 ], [ -0.234141676359182, 51.533520108846929 ], [ -0.234148595839029, 51.533574167244531 ], [ -0.234235074164137, 51.533621554840373 ], [ -0.234383552896016, 51.533696852642215 ], [ -0.234577864860239, 51.53379869306842 ], [ -0.234715841455981, 51.533865964070195 ], [ -0.23487868834561, 51.533942601485307 ], [ -0.234999044344895, 51.533999490604486 ], [ -0.23517278663606, 51.534074043433918 ], [ -0.235257987075588, 51.534107922478867 ], [ -0.235483358646886, 51.534198988137 ], [ -0.235944825272088, 51.53438352747758 ], [ -0.236102619681246, 51.534451094820163 ], [ -0.236271091953511, 51.534522194620109 ], [ -0.236409333769678, 51.534582723305576 ], [ -0.236565024376206, 51.534658126712834 ], [ -0.236642717926866, 51.534699760218103 ], [ -0.236705024871444, 51.534719805526095 ], [ -0.236751380763411, 51.534732866778342 ], [ -0.236784867221174, 51.53475247886395 ], [ -0.236816639238831, 51.534769817080239 ], [ -0.23689604768525, 51.534813724280966 ], [ -0.237001998193138, 51.534870394810397 ], [ -0.237194389547321, 51.534975574096968 ], [ -0.237455470307, 51.535122250732428 ], [ -0.237670846861611, 51.535239015009715 ], [ -0.237792620629279, 51.535306038922819 ], [ -0.237984928888031, 51.535413463728361 ], [ -0.238454320170504, 51.535673423123256 ], [ -0.238637798361444, 51.53577621806383 ], [ -0.239027654330193, 51.535995639350368 ], [ -0.23911757160131, 51.536047571076629 ], [ -0.239258600863576, 51.536129495046545 ], [ -0.239394356637325, 51.536207967565133 ], [ -0.239572261676942, 51.536315173554627 ], [ -0.239667540916202, 51.536368309355986 ], [ -0.239926532918073, 51.5365228173453 ], [ -0.240078069959246, 51.53661276627075 ], [ -0.240120306065276, 51.536639252912373 ], [ -0.240387614803564, 51.536811869344632 ], [ -0.240410079504021, 51.53683693528361 ], [ -0.240425338736653, 51.536861893146828 ], [ -0.240418938173434, 51.536887650188874 ], [ -0.240361629285615, 51.537018303918977 ], [ -0.240337716462696, 51.53707751964523 ], [ -0.240419547109181, 51.537199019854519 ], [ -0.240491176353708, 51.537304630370066 ], [ -0.240550914524613, 51.537438163632743 ], [ -0.240654630418435, 51.537646543357432 ], [ -0.240661662759947, 51.537651144997994 ], [ -0.240668651784148, 51.537656870033629 ], [ -0.240677312259429, 51.537665992269716 ], [ -0.240680698477285, 51.537671663275844 ], [ -0.240685929419812, 51.537676237900669 ], [ -0.240691030408727, 51.5376841827117 ], [ -0.240692571905392, 51.537690950098806 ], [ -0.240692138723303, 51.53770218405365 ], [ -0.240693463629662, 51.537714568418153 ], [ -0.24070507716619, 51.537740595612739 ], [ -0.240738246393951, 51.537815279989772 ], [ -0.24081359225191, 51.537964783778378 ], [ -0.240827483804193, 51.537978480622868 ], [ -0.241082218752126, 51.538196992676802 ], [ -0.241280487999282, 51.538477604203472 ], [ -0.241418913284287, 51.538674139017722 ], [ -0.241490720291579, 51.538775255358345 ], [ -0.241612431711119, 51.538937818054229 ], [ -0.241726808251628, 51.539103642820294 ], [ -0.241769810010637, 51.539157117387035 ], [ -0.241851648091834, 51.539278616627364 ], [ -0.242064468354586, 51.539556072656474 ], [ -0.242098809802663, 51.539600424969471 ], [ -0.242135039372715, 51.539642557473556 ], [ -0.242225843435675, 51.539765314820116 ], [ -0.242248007587803, 51.539798244190401 ], [ -0.242287234482579, 51.539856158175219 ], [ -0.242317713688314, 51.539907196821289 ], [ -0.242355528792025, 51.539954973229577 ], [ -0.24239814255385, 51.540018558137575 ], [ -0.242454692386194, 51.540094716292259 ], [ -0.242490619725114, 51.540144712462492 ], [ -0.24253512190796, 51.540206077517489 ], [ -0.242543134083215, 51.540232050561784 ], [ -0.242549258205133, 51.540260243411147 ], [ -0.242565282598095, 51.540312189497079 ], [ -0.242579548788639, 51.540362985198477 ], [ -0.242603239289672, 51.54044989148889 ], [ -0.242621914792171, 51.54052660625257 ], [ -0.242632880987701, 51.540569484203004 ], [ -0.242640893277585, 51.540595457240201 ], [ -0.242650707099884, 51.540621457262013 ], [ -0.242672093028656, 51.540674607684153 ], [ -0.242693305911282, 51.540732251686848 ], [ -0.242745805395086, 51.540866799317762 ], [ -0.242854251080131, 51.541093232438413 ], [ -0.242952753871297, 51.541297035653201 ], [ -0.242876364844534, 51.541408296009358 ], [ -0.24290073295239, 51.54152443751525 ], [ -0.242881918590885, 51.541732103893892 ], [ -0.242879338151961, 51.541752298040279 ], [ -0.242832814836504, 51.542211335268917 ], [ -0.242816104313941, 51.542411164820066 ], [ -0.242786821201494, 51.542750187503977 ], [ -0.242776223405344, 51.542884914042951 ], [ -0.242774563017788, 51.542974812685642 ], [ -0.242780509980533, 51.543148004513611 ], [ -0.242779888188559, 51.543210941656227 ], [ -0.242787598063376, 51.543244778447111 ], [ -0.242834278783802, 51.543343269415288 ], [ -0.242921602612631, 51.543509811684601 ], [ -0.242997483862931, 51.543645833339518 ], [ -0.243090878454019, 51.543748395891363 ], [ -0.243113304708538, 51.543774584726329 ], [ -0.243143197191089, 51.54379414109782 ], [ -0.243303123800316, 51.543901071869264 ], [ -0.243450872152382, 51.543996579650219 ], [ -0.243457992263389, 51.543998934338418 ], [ -0.244019187566225, 51.543937644389672 ], [ -0.24475446414508, 51.543849731146551 ], [ -0.24519451321917, 51.543797863524134 ], [ -0.245457092239252, 51.543766945278385 ], [ -0.24568604880854, 51.54386029251269 ], [ -0.24631835616755, 51.54448122506767 ], [ -0.246681564222813, 51.544833982799695 ], [ -0.24685349846549, 51.545004034496337 ], [ -0.246978514875667, 51.545128423193404 ], [ -0.247051466611967, 51.545200327891536 ], [ -0.247176527262718, 51.545323592985866 ], [ -0.247228636065301, 51.545374953403666 ], [ -0.247272168076842, 51.545414945239735 ], [ -0.247413359076072, 51.545540699127578 ], [ -0.247467399605478, 51.545588716162136 ], [ -0.247700846488596, 51.545800150923462 ], [ -0.2478851845334, 51.545976006508624 ], [ -0.248031525273225, 51.546108580782956 ], [ -0.248087239418688, 51.54615999463941 ], [ -0.248256400084591, 51.546308645963883 ], [ -0.248343640320635, 51.546384135285486 ], [ -0.24848694098303, 51.546502051028305 ], [ -0.248523483804285, 51.546536317829577 ], [ -0.248673551194665, 51.546712784558309 ], [ -0.24874753346532, 51.546804936300973 ], [ -0.248950697523019, 51.547054133892438 ], [ -0.248922884748204, 51.547121161335824 ], [ -0.248551125808678, 51.547271854213136 ], [ -0.248533011522179, 51.547321041666216 ], [ -0.248459774939234, 51.547350297504913 ], [ -0.247860489464483, 51.54760437534005 ], [ -0.246967293835362, 51.548000184604554 ], [ -0.246693985927961, 51.548121993451105 ], [ -0.246707210488668, 51.548246959784876 ], [ -0.247598736302191, 51.54859861567585 ], [ -0.247667259627116, 51.548739020349224 ], [ -0.247584319029184, 51.548973830440644 ], [ -0.247687995702069, 51.549043945478871 ], [ -0.248796462490603, 51.548958207455435 ], [ -0.248877761809948, 51.548953800661266 ], [ -0.249050332900224, 51.549060912052127 ], [ -0.249101379326769, 51.549093147005138 ], [ -0.249145347745728, 51.549121904187189 ], [ -0.249196092421897, 51.549162002888544 ], [ -0.249224102906577, 51.549183777659948 ], [ -0.249246664685522, 51.549206595162183 ], [ -0.249267208992384, 51.549235002765556 ], [ -0.249275183350005, 51.549262098761119 ], [ -0.249272562107008, 51.549283416444339 ], [ -0.249267793988313, 51.549313694427887 ], [ -0.24925667148172, 51.549368606514847 ], [ -0.249211112443733, 51.549569130185539 ], [ -0.249204456111251, 51.549601628073269 ], [ -0.249205395455733, 51.549624122927305 ], [ -0.249204705422824, 51.549642097300179 ], [ -0.249261700110323, 51.549754227906263 ], [ -0.249308401199505, 51.549852716387633 ], [ -0.249540193926595, 51.550342884840624 ], [ -0.249629994810546, 51.550539807803773 ], [ -0.249749730499642, 51.550802371649226 ], [ -0.24975779162693, 51.550827220813531 ], [ -0.249785277129607, 51.550909685850748 ], [ -0.249781483022014, 51.551008544909571 ], [ -0.249772455520258, 51.55110282973412 ], [ -0.24971476641367, 51.551243598399132 ], [ -0.249623012265311, 51.551379362681523 ], [ -0.249603742234693, 51.551411672407177 ], [ -0.249610518862547, 51.551423013918594 ], [ -0.249682036608128, 51.551438693365505 ], [ -0.250558480507212, 51.551668704660948 ], [ -0.250594390571373, 51.551672612208264 ], [ -0.250618204011122, 51.551662850891759 ], [ -0.250790127525596, 51.551364171035083 ], [ -0.251140017896034, 51.55103217440211 ], [ -0.251240898382387, 51.550940382590937 ], [ -0.251264883613964, 51.55092612753996 ], [ -0.251288179586903, 51.550929846872783 ], [ -0.252885528679329, 51.551543764665894 ], [ -0.252905069378843, 51.551739638767359 ], [ -0.252565733770879, 51.552125751749379 ], [ -0.252622862883466, 51.552281720214175 ], [ -0.252113714381165, 51.552582123792803 ], [ -0.252014448440315, 51.552772855996416 ], [ -0.251955945768383, 51.552934970357825 ], [ -0.251910315238907, 51.553090532220175 ], [ -0.251907817420306, 51.553155689376858 ], [ -0.252085814616117, 51.55359222089816 ], [ -0.252198628693702, 51.55380072493125 ], [ -0.252355948191738, 51.553930084857598 ], [ -0.252740058566782, 51.554163985665106 ], [ -0.252796347293572, 51.554200793165464 ], [ -0.252911415779082, 51.554256460525565 ], [ -0.253256838101419, 51.554417844942478 ], [ -0.25328528405703, 51.554428384775889 ], [ -0.253583434597264, 51.554505885494336 ], [ -0.253897159653057, 51.554600477825701 ], [ -0.254223332997437, 51.554652540992613 ], [ -0.255419275977894, 51.554687189509742 ], [ -0.256100211415752, 51.554656846541519 ], [ -0.257433117623022, 51.554599090718497 ], [ -0.257649366772368, 51.554696721441111 ], [ -0.259278460054221, 51.554673691551777 ], [ -0.261274494337506, 51.554674061761986 ], [ -0.261518762528012, 51.554651828293068 ], [ -0.263098027102596, 51.554516727196159 ], [ -0.263318780887456, 51.554496389979441 ], [ -0.264371789199553, 51.554401815104185 ], [ -0.265030357124543, 51.554342988499215 ], [ -0.265515239531532, 51.554299575468548 ], [ -0.265853554081963, 51.554269730872633 ], [ -0.265929540709626, 51.554262985620859 ], [ -0.265961978236396, 51.554263465005789 ], [ -0.265988454139238, 51.554278468782975 ], [ -0.266001802811068, 51.554306767022716 ], [ -0.266056561343783, 51.554621183049868 ], [ -0.266094308911221, 51.554813951481343 ], [ -0.266113293566825, 51.554931132042981 ], [ -0.266090616047808, 51.55505331714145 ], [ -0.266056834489983, 51.555230416034199 ], [ -0.266034875079204, 51.555286293453392 ], [ -0.26601094259804, 51.555346637864524 ], [ -0.26605852072821, 51.555565404445559 ], [ -0.26609669619384, 51.555746938781894 ], [ -0.265976445821237, 51.555874426178988 ], [ -0.265979793777555, 51.555881219886842 ], [ -0.266110015177795, 51.556107951946757 ], [ -0.266156724222986, 51.556254767155167 ], [ -0.266188394230192, 51.556275467819361 ], [ -0.266451756809491, 51.556462577324034 ], [ -0.266500936286876, 51.556497025047243 ], [ -0.266516173492038, 51.556523103037371 ], [ -0.266627984701038, 51.556712469227236 ], [ -0.266814874034321, 51.557061433685675 ], [ -0.26715908179602, 51.557683614360968 ], [ -0.267393325090431, 51.558115331878163 ], [ -0.267514761884386, 51.558336312324236 ], [ -0.267931696285841, 51.559038246910312 ], [ -0.268096402749609, 51.559307074977184 ], [ -0.268196507216508, 51.559472661938621 ], [ -0.268199471688139, 51.559489566254328 ], [ -0.268191878443762, 51.559499570524515 ], [ -0.268129704255953, 51.559522257673144 ], [ -0.267948844299773, 51.559583658282996 ], [ -0.267904948947211, 51.55959987090003 ], [ -0.267862300985521, 51.559630714402964 ], [ -0.267827477195375, 51.559665980703329 ] ] ] } },
{ "type": "Feature", "properties": { "layerreference": "lpd_bre_npi00000004", "sitename": "Birchen Grove - Kensal Green", "borough": "Brent", "planningauthority": "Brent", "hectares": "0.0", "easting": "520527", "northing": "186465", "designation": "Notifiable Pipeline", "boroughdesignation": "Notifiable Pipeline", "classification": "High Pressure", "notes": "Pipe diameter: 610mm", "extrainfo1": null, "globalid": null, "source_file": "Notifiable_Pipeline_26.geojson", "sitereference": null, "address": null, "uprn": null, "firstaddeddate": null, "lastupdateddate": null, "removeddate": null, "status": null, "source": null, "extrainfo2": null, "extrainfo3": null, "missing": null }, "geometry": { "type": "MultiLineString", "coordinates": [ [ [ -0.267306784693525, 51.56015746469383 ], [ -0.267306694766424, 51.560157553288917 ], [ -0.26727532947517, 51.560176198771295 ], [ -0.267204620932521, 51.560233604574989 ], [ -0.267023552131011, 51.560347830455129 ], [ -0.266852920578958, 51.560519536135466 ], [ -0.266449912032142, 51.56092160856187 ], [ -0.266406706471175, 51.560967055791536 ], [ -0.26639889897751, 51.560982676969239 ], [ -0.266403024404632, 51.561016459044488 ], [ -0.266413889323877, 51.56106270510093 ], [ -0.266419945285057, 51.561093143583967 ], [ -0.26638785271971, 51.561130886724932 ], [ -0.266247677161028, 51.561260328062858 ], [ -0.26608699110052, 51.561407450760619 ], [ -0.265963804362358, 51.561516910124027 ], [ -0.265943123615949, 51.561539085258978 ], [ -0.265931924782039, 51.561549036101297 ], [ -0.265906136022277, 51.561563267481219 ], [ -0.26586429682205, 51.561572765504842 ], [ -0.265804441305441, 51.561629206826893 ], [ -0.265584024666171, 51.561829399868593 ], [ -0.265036600731427, 51.562329372149527 ], [ -0.264502209374643, 51.562818294279303 ], [ -0.263725401865533, 51.563516070410508 ], [ -0.263129403446303, 51.564059152599221 ], [ -0.26294822794855, 51.564222828325939 ], [ -0.262938873081215, 51.564231682144381 ], [ -0.262774689224173, 51.564375376460426 ], [ -0.262741216967439, 51.56440185781323 ], [ -0.262713580292401, 51.564417185178428 ], [ -0.262643240635438, 51.564417267813205 ], [ -0.262485389013614, 51.564347488363978 ], [ -0.262173420666332, 51.564204612018017 ], [ -0.262052908410554, 51.564148873405557 ], [ -0.261888807768717, 51.564290319654248 ], [ -0.26183117459317, 51.564335551512691 ], [ -0.261833665748416, 51.564364813389808 ], [ -0.261755476831681, 51.564428849365257 ], [ -0.261695312545327, 51.564493152302298 ], [ -0.261625707209495, 51.564568555722126 ], [ -0.261394142951497, 51.56477644409371 ], [ -0.261138115455998, 51.565010946410247 ], [ -0.260824492781237, 51.565289556068414 ], [ -0.260516531067736, 51.565561504587762 ], [ -0.260290535765725, 51.565764977205205 ], [ -0.259863087357771, 51.566143060114207 ], [ -0.259588761258239, 51.566384031955209 ], [ -0.259322715710605, 51.566644234630409 ], [ -0.259122331890846, 51.56683796859285 ], [ -0.259045637079779, 51.566909893209107 ], [ -0.258967053617637, 51.566984037829428 ], [ -0.258856409741099, 51.567094799939127 ], [ -0.258801731387751, 51.567156934729681 ], [ -0.258741258840868, 51.567229099854835 ], [ -0.258688082314799, 51.567299125140146 ], [ -0.258634390558556, 51.567382631205319 ], [ -0.258577179250275, 51.567463836941087 ], [ -0.25855872380164, 51.567522013009558 ], [ -0.258526748649229, 51.567603593224682 ], [ -0.25849674769102, 51.567680706579182 ], [ -0.258473442259987, 51.567724198170048 ], [ -0.258516489742701, 51.567824876350983 ], [ -0.258751559134886, 51.567950884716105 ], [ -0.258771259185611, 51.567954549143693 ], [ -0.258840102059932, 51.567946578331231 ], [ -0.258980148244697, 51.567916059120712 ] ] ] } }
]
}
